COSMOS 2433 (720)       
1 32275U 07052A   22279.32408197 -.00000082  00000+0  00000+0 0  9998
2 32275  66.0757   0.9938 0003903 220.8520 136.2525  2.13104343116323
COSMOS 2432 (719)       
1 32276U 07052B   22279.04855558 -.00000082  00000+0  00000+0 0  9995
2 32276  66.0898   1.1061 0008219 320.4825 133.2542  2.13103484116321
COSMOS 2434 (721)       
1 32393U 07065A   22278.81571909  .00000004  00000+0  00000+0 0  9991
2 32393  64.3708 237.6588 0000420 105.7973 111.2494  2.13103161115026
COSMOS 2436 (723)       
1 32395U 07065C   22279.36358052 -.00000004  00000+0  00000+0 0  9997
2 32395  64.3787 237.6993 0015514 353.3912  59.7503  2.13102728114977
COSMOS 2456 (730)       
1 36111U 09070A   22278.53877969  .00000077  00000+0  00000+0 0  9995
2 36111  64.3808 117.2732 0002115 336.0424 192.6043  2.13099362 99689
COSMOS 2457 (733)       
1 36112U 09070B   22279.24189198  .00000080  00000+0  00000+0 0  9999
2 36112  64.3613 117.1225 0006131 149.8057 326.4012  2.13101528 99708
COSMOS 2461 (735)       
1 36401U 10007B   22278.47660127 -.00000081  00000+0  00000+0 0  9994
2 36401  65.9582 359.8442 0018271   6.7091 277.5010  2.13103767 98030
COSMOS 2460 (732)       
1 36402U 10007C   22279.09382894 -.00000081  00000+0  00000+0 0  9996
2 36402  65.9459 359.7718 0001659 174.4370 172.7920  2.13106514 98044
COSMOS 2464 (736)       
1 37139U 10041C   22279.21457951 -.00000004  00000+0  00000+0 0  9998
2 37139  63.9697 236.6655 0028731   6.4586  13.9965  2.13100873 94111
COSMOS 2476 (744)       
1 37867U 11064A   22279.62744407  .00000081  00000+0  00000+0 0  9996
2 37867  64.6677 118.6352 0020562 231.8327 318.4262  2.13101918 85056
COSMOS 2477 (745)       
1 37868U 11064B   22279.36842311  .00000081  00000+0  00000+0 0  9991
2 37868  64.6742 118.7104 0017788 232.2002 297.4101  2.13101748 85001
COSMOS 2475 (743)       
1 37869U 11064C   22279.45213947  .00000081  00000+0  00000+0 0  9999
2 37869  64.6818 118.7168 0021604 252.1011 299.8796  2.13102039 85010
COSMOS 2485 (747)       
1 39155U 13019A   22279.57997341  .00000082  00000+0  00000+0 0  9992
2 39155  64.8305 119.0893 0021124 227.8544 330.3955  2.13102063 73527
COSMOS 2492 (754)       
1 39620U 14012A   22279.37026899 -.00000081  00000+0  00000+0 0  9992
2 39620  65.8319 359.4279 0011436 316.8684 114.8625  2.13103284 66478
COSMOS 2500 (755)       
1 40001U 14032A   22278.51452859 -.00000080  00000+0  00000+0 0  9992
2 40001  65.7713 359.3097 0007988 197.6696 155.9203  2.13102442 64664
COSMOS 2501 (702K)      
1 40315U 14075A   22279.48135063 -.00000007  00000+0  00000+0 0  9998
2 40315  63.6761 237.2824 0019139 212.0034 331.8398  2.13101418 61099
COSMOS 2514 (751)       
1 41330U 16008A   22279.22149889 -.00000081  00000+0  00000+0 0  9999
2 41330  65.5697 358.9511 0011943 210.6019 149.3733  2.13102478 51857
COSMOS 2516 (753)       
1 41554U 16032A   22279.58008641 -.00000008  00000+0  00000+0 0  9992
2 41554  63.9025 237.5865 0014936 216.3195 323.7703  2.13106437 49467
COSMOS 2522 (752)       
1 42939U 17055A   22279.80370163 -.00000009  00000+0  00000+0 0  9993
2 42939  64.1362 238.0062 0009634 245.8809 320.7148  2.13102116 39228
COSMOS 2527 (756)       
1 43508U 18053A   22279.23399847  .00000081  00000+0  00000+0 0  9991
2 43508  64.9919 119.1245 0007267 216.9728 304.6283  2.13102592 33502
COSMOS 2529 (757)       
1 43687U 18086A   22279.40294838 -.00000004  00000+0  00000+0 0  9994
2 43687  64.3514 238.3662 0011452 264.9962 309.6729  2.13102163 30529
COSMOS 2534 (758)       
1 44299U 19030A   22279.42045912 -.00000004  00000+0  00000+0 0  9993
2 44299  64.4234 238.2609 0013972 283.2223  79.3624  2.13101931 26175
COSMOS 2544 (759)       
1 44850U 19088A   22279.41059889  .00000082  00000+0  16595+1 0  9998
2 44850  64.9777 118.9687 0010743 253.2458  87.2141  2.13102385 21930
COSMOS 2545 (760)       
1 45358U 20018A   22278.68799501 -.00000082  00000+0  00000+0 0  9991
2 45358  64.9086 359.4863 0009850 237.0843 118.3591  2.13102784 19878
COSMOS 2547 (705K)      
1 46805U 20075A   22279.57568628 -.00000006  00000+0  00000+0 0  9991
2 46805  64.6480 237.7130 0008474 247.0591 282.6823  2.13103021 15142
COSMOS 2557 (706K)      
1 52984U 22075A   22278.47804303 -.00000083  00000+0  10000-3 0  9999
2 52984  64.8130   1.6911 0011896 276.3903   9.0209  2.13102016  1912
